OBJECT_NAME,OBJECT_ID,EPOCH,MEAN_MOTION,ECCENTRICITY,INCLINATION,RA_OF_ASC_NODE,ARG_OF_PERICENTER,MEAN_ANOMALY,EPHEMERIS_TYPE,CLASSIFICATION_TYPE,NORAD_CAT_ID,ELEMENT_SET_NO,REV_AT_EPOCH,BSTAR,MEAN_MOTION_DOT,MEAN_MOTION_DDOT
ONEWEB-0068,2020-020Y,2026-07-15T23:50:40.209216,13.11418172,.00016286,87.8892,15.3291,92.0598,268.0717,0,U,45446,999,30637,-.11712566E-2,-.402E-5,0
ONEWEB-0046,2020-020Z,2026-07-15T23:38:38.472864,13.11417681,.00016391,87.8883,15.3344,84.3339,275.7975,0,U,45447,999,30638,-.14330627E-2,-.495E-5,0
ONEWEB-0063,2020-020AA,2026-07-16T05:49:58.719936,13.11417860,.00019185,87.8894,15.2848,82.1164,278.0182,0,U,45448,999,30650,.92349626E-3,.34E-5,0
ONEWEB-0019,2020-020AB,2026-07-16T01:16:07.171392,13.11415392,.00019804,87.8886,15.3070,96.6986,263.4368,0,U,45449,999,30632,-.10220716E-2,-.35E-5,0
ONEWEB-0094,2020-020AC,2026-07-15T23:35:10.486464,13.17648888,.00018119,87.9155,0.1231,100.3244,259.8092,0,U,45450,999,31010,-.1417601E-3,-.42E-6,0
ONEWEB-0087,2020-020AD,2026-07-16T00:34:37.724736,13.11416698,.00015857,87.8901,15.3047,95.2216,264.9092,0,U,45451,999,30636,.13866694E-2,.504E-5,0
ONEWEB-0082,2020-020AE,2026-07-16T00:29:44.776032,13.11417244,.00013608,87.8893,15.3197,88.0067,272.1217,0,U,45452,999,30645,.14438055E-2,.524E-5,0
ONEWEB-0050,2020-020AF,2026-07-16T03:31:40.933920,14.90474206,.00023804,88.9279,229.2768,171.5241,188.6028,0,U,45453,999,34469,.90799892E-4,.907E-5,0
ONEWEB-0034,2020-020AG,2026-07-16T05:03:36.144000,13.11415747,.00018091,87.8892,15.2910,89.8767,270.2568,0,U,45454,999,30639,-.14146977E-2,-.489E-5,0
ONEWEB-0060,2020-020AH,2026-07-16T00:18:57.582144,13.11418269,.0001219,87.8887,15.3260,121.3919,238.7329,0,U,45455,999,30632,.96406839E-3,.354E-5,0
ONEWEB-0086,2020-020AJ,2026-07-15T23:48:13.176288,13.11418593,.00018717,87.8893,15.3280,114.7226,245.4097,0,U,45456,999,30638,-.12471418E-2,-.429E-5,0
ONEWEB-0088,2020-020AK,2026-07-16T01:06:32.594112,13.11415199,.00017095,87.8899,15.2920,78.5837,281.5482,0,U,45457,999,30632,-.38130617E-3,-.122E-5,0
ONEWEB-0102,2020-100A,2026-07-15T21:00:32.801760,13.12442367,.00020386,87.8963,344.9694,103.0815,257.0541,0,U,47258,999,26849,.73899065E-3,.279E-5,0
ONEWEB-0109,2020-100B,2026-07-15T23:02:31.238592,13.12441829,.00020239,87.8972,344.9388,97.5678,262.5681,0,U,47259,999,26833,-.3326102E-3,-.107E-5,0
ONEWEB-0110,2020-100C,2026-07-15T21:51:46.773792,13.12444500,.0001814,87.8973,344.9326,105.4889,254.6440,0,U,47260,999,26849,-.71266E-3,-.244E-5,0
ONEWEB-0111,2020-100D,2026-07-15T22:35:41.769024,13.12443089,.0001776,87.8972,344.9452,98.0959,262.0371,0,U,47261,999,26833,.1034E-2,.385E-5,0
ONEWEB-0114,2020-100E,2026-07-16T02:59:09.333312,13.12441903,.00020913,87.8976,344.9074,94.8526,265.2841,0,U,47262,999,26831,-.10757923E-2,-.374E-5,0
ONEWEB-0117,2020-100F,2026-07-15T23:07:23.870208,13.12442044,.00018538,87.8971,344.9290,97.0634,263.0706,0,U,47263,999,26830,-.29971191E-3,-.95E-6,0
ONEWEB-0118,2020-100G,2026-07-16T03:35:45.575520,13.12443717,.00019923,87.8970,344.8948,87.4105,272.7251,0,U,47264,999,26852,-.47395554E-4,-.4E-7,0
ONEWEB-0119,2020-100H,2026-07-15T20:53:14.067744,13.12441812,.0001852,87.8961,344.9643,95.0185,265.1155,0,U,47265,999,26846,.94025E-3,.351E-5,0
ONEWEB-0120,2020-100J,2026-07-15T21:27:34.341408,13.12441732,.0002036,87.8961,344.9611,95.7423,264.3938,0,U,47266,999,26849,-.9775E-3,-.339E-5,0
ONEWEB-0121,2020-100K,2026-07-15T21:10:17.912064,13.12441366,.0001568,87.8973,344.9523,100.8350,259.2955,0,U,47267,999,26840,-.10331E-3,-.24E-6,0
ONEWEB-0122,2020-100L,2026-07-15T21:01:45.846048,13.12440253,.0001986,87.8974,344.9585,98.4846,261.6507,0,U,47268,999,26831,.57241E-3,.219E-5,0
ONEWEB-0123,2020-100M,2026-07-15T20:55:39.956736,13.12441925,.0001858,87.8962,344.9630,92.9220,267.2122,0,U,47269,999,26845,.89868E-3,.336E-5,0
ONEWEB-0124,2020-100N,2026-07-15T22:30:48.769344,13.12443011,.0001761,87.8960,344.9525,97.3304,262.8025,0,U,47270,999,26834,.1305E-2,.482E-5,0
ONEWEB-0125,2020-100P,2026-07-16T07:07:59.504736,13.12444520,.00015993,87.8971,344.8680,91.6136,268.5176,0,U,47271,999,26845,-.49028418E-3,-.164E-5,0
ONEWEB-0126,2020-100Q,2026-07-15T22:28:35.342688,13.12442854,.0001982,87.8966,344.9536,94.4908,265.6447,0,U,47272,999,26847,.11203E-2,.416E-5,0
ONEWEB-0127,2020-100R,2026-07-16T03:08:54.760704,13.12442998,.00020078,87.8962,344.9123,96.2366,263.8992,0,U,47273,999,26852,-.13334635E-2,-.467E-5,0
ONEWEB-0128,2020-100S,2026-07-15T22:11:17.503296,13.12444195,.0001809,87.8960,344.9671,106.2957,253.8370,0,U,47274,999,26851,.37494E-3,.148E-5,0
ONEWEB-0129,2020-100T,2026-07-16T03:11:21.360768,13.12441990,.00029746,87.8972,344.9023,92.3986,267.7483,0,U,47275,999,26847,-.13449274E-2,-.471E-5,0
