ONEWEB-0068             
1 45446U 20020Y   26196.99352094 -.00000402  00000+0 -11713-2 0  9994
2 45446  87.8892  15.3291 0001628  92.0598 268.0717 13.11418172306377
ONEWEB-0046             
1 45447U 20020Z   26196.98516751 -.00000495  00000+0 -14331-2 0  9997
2 45447  87.8883  15.3344 0001639  84.3339 275.7975 13.11417681306382
ONEWEB-0063             
1 45448U 20020AA  26197.24304074  .00000340  00000+0  92350-3 0  9996
2 45448  87.8894  15.2848 0001918  82.1164 278.0182 13.11417860306504
ONEWEB-0019             
1 45449U 20020AB  26197.05286078 -.00000350  00000+0 -10221-2 0  9998
2 45449  87.8886  15.3070 0001980  96.6986 263.4368 13.11415392306327
ONEWEB-0094             
1 45450U 20020AC  26196.98276026 -.00000042  00000+0 -14176-3 0  9995
2 45450  87.9155   0.1231 0001811 100.3244 259.8092 13.17648888310101
ONEWEB-0087             
1 45451U 20020AD  26197.02404774  .00000504  00000+0  13867-2 0  9991
2 45451  87.8901  15.3047 0001585  95.2216 264.9092 13.11416698306368
ONEWEB-0082             
1 45452U 20020AE  26197.02065713  .00000524  00000+0  14438-2 0  9995
2 45452  87.8893  15.3197 0001360  88.0067 272.1217 13.11417244306458
ONEWEB-0050             
1 45453U 20020AF  26197.14700155  .00000907  00000+0  90800-4 0  9999
2 45453  88.9279 229.2768 0002380 171.5241 188.6028 14.90474206344692
ONEWEB-0034             
1 45454U 20020AG  26197.21083500 -.00000489  00000+0 -14147-2 0  9991
2 45454  87.8892  15.2910 0001809  89.8767 270.2568 13.11415747306392
ONEWEB-0060             
1 45455U 20020AH  26197.01316646  .00000354  00000+0  96407-3 0  9999
2 45455  87.8887  15.3260 0001219 121.3919 238.7329 13.11418269306321
ONEWEB-0086             
1 45456U 20020AJ  26196.99181917 -.00000429  00000+0 -12471-2 0  9990
2 45456  87.8893  15.3280 0001871 114.7226 245.4097 13.11418593306385
ONEWEB-0088             
1 45457U 20020AK  26197.04621058 -.00000122  00000+0 -38131-3 0  9995
2 45457  87.8899  15.2920 0001709  78.5837 281.5482 13.11415199306329
ONEWEB-0102             
1 47258U 20100A   26196.87537965  .00000279  00000+0  73899-3 0  9999
2 47258  87.8963 344.9694 0002038 103.0815 257.0541 13.12442367268495
ONEWEB-0109             
1 47259U 20100B   26196.96008378 -.00000107  00000+0 -33261-3 0  9992
2 47259  87.8972 344.9388 0002023  97.5678 262.5681 13.12441829268335
ONEWEB-0110             
1 47260U 20100C   26196.91095803 -.00000244  00000+0 -71266-3 0  9997
2 47260  87.8973 344.9326 0001814 105.4889 254.6440 13.12444500268491
ONEWEB-0111             
1 47261U 20100D   26196.94145566  .00000385  00000+0  10340-2 0  9992
2 47261  87.8972 344.9452 0001776  98.0959 262.0371 13.12443089268333
ONEWEB-0114             
1 47262U 20100E   26197.12441358 -.00000374  00000+0 -10758-2 0  9995
2 47262  87.8976 344.9074 0002091  94.8526 265.2841 13.12441903268311
ONEWEB-0117             
1 47263U 20100F   26196.96347072 -.00000095  00000+0 -29971-3 0  9993
2 47263  87.8971 344.9290 0001853  97.0634 263.0706 13.12442044268309
ONEWEB-0118             
1 47264U 20100G   26197.14983305 -.00000004  00000+0 -47396-4 0  9992
2 47264  87.8970 344.8948 0001992  87.4105 272.7251 13.12443717268522
ONEWEB-0119             
1 47265U 20100H   26196.87030171  .00000351  00000+0  94025-3 0  9999
2 47265  87.8961 344.9643 0001852  95.0185 265.1155 13.12441812268460
ONEWEB-0120             
1 47266U 20100J   26196.89414747 -.00000339  00000+0 -97750-3 0  9993
2 47266  87.8961 344.9611 0002036  95.7423 264.3938 13.12441732268497
ONEWEB-0121             
1 47267U 20100K   26196.88215176 -.00000024  00000+0 -10331-3 0  9999
2 47267  87.8973 344.9523 0001568 100.8350 259.2955 13.12441366268405
ONEWEB-0122             
1 47268U 20100L   26196.87622507  .00000219  00000+0  57241-3 0  9994
2 47268  87.8974 344.9585 0001986  98.4846 261.6507 13.12440253268315
ONEWEB-0123             
1 47269U 20100M   26196.87199024  .00000336  00000+0  89868-3 0  9998
2 47269  87.8962 344.9630 0001858  92.9220 267.2122 13.12441925268454
ONEWEB-0124             
1 47270U 20100N   26196.93806446  .00000482  00000+0  13050-2 0  9991
2 47270  87.8960 344.9525 0001761  97.3304 262.8025 13.12443011268341
ONEWEB-0125             
1 47271U 20100P   26197.29721649 -.00000164  00000+0 -49028-3 0  9997
2 47271  87.8971 344.8680 0001599  91.6136 268.5176 13.12444520268452
ONEWEB-0126             
1 47272U 20100Q   26196.93652017  .00000416  00000+0  11203-2 0  9991
2 47272  87.8966 344.9536 0001982  94.4908 265.6447 13.12442854268471
ONEWEB-0127             
1 47273U 20100R   26197.13118936 -.00000467  00000+0 -13335-2 0  9998
2 47273  87.8962 344.9123 0002007  96.2366 263.8992 13.12442998268527
ONEWEB-0128             
1 47274U 20100S   26196.92450814  .00000148  00000+0  37494-3 0  9996
2 47274  87.8960 344.9671 0001809 106.2957 253.8370 13.12444195268510
ONEWEB-0129             
1 47275U 20100T   26197.13288612 -.00000471  00000+0 -13449-2 0  9990
2 47275  87.8972 344.9023 0002974  92.3986 267.7483 13.12441990268470
